NORAD_CAT_ID,OBJECT_NAME,OBJECT_TYPE,EPOCH,MEAN_MOTION,ECCENTRICITY,INCLINATION,RA_OF_ASC_NODE,ARG_OF_PERICENTER,MEAN_ANOMALY,BSTAR,MEAN_MOTION_DOT,MEAN_MOTION_DDOT,TLE_LINE0,TLE_LINE1,TLE_LINE2,SEMIMAJOR_AXIS,PERIOD,APOGEE,PERIGEE,DECAYED
51872.0,STARLINK-3554,PAYLOAD,2023-06-10 19:01:05,15.07202269,8.89e-05,53.2166,191.0846,76.0145,284.0946,2.4943e-05,9.7e-07,0.0,0 STARLINK-3554,1 51872U 22022W   23161.79242871  .00000097  00000-0  24943-4 0  9996,2 51872  53.2166 191.0846 0000889  76.0145 284.0946 15.07202269 71718,6922.891,95.541,545.371,544.14,0.0
51872.0,STARLINK-3554,PAYLOAD,2023-06-11 04:34:01,15.07202326,8.7e-05,53.2165,189.3027,76.1333,283.9755,3.9254e-05,3.14e-06,0.0,0 STARLINK-3554,1 51872U 22022W   23162.19030013  .00000314  00000-0  39254-4 0  9997,2 51872  53.2165 189.3027 0000870  76.1333 283.9755 15.07202326 71774,6922.891,95.541,545.358,544.153,0.0
51872.0,STARLINK-3554,PAYLOAD,2023-06-11 20:28:55,15.07203677,8.57e-05,53.2166,186.3329,74.2915,285.8171,4.7178e-05,4.35e-06,0.0,0 STARLINK-3554,1 51872U 22022W   23162.85341816  .00000435  00000-0  47178-4 0  9994,2 51872  53.2166 186.3329 0000857  74.2915 285.8171 15.07203677 71871,6922.886,95.541,545.345,544.158,0.0
51872.0,STARLINK-3554,PAYLOAD,2023-06-12 01:15:23,15.07202776,8.54e-05,53.2166,185.4419,74.8704,285.2382,4.5959e-05,4.16e-06,0.0,0 STARLINK-3554,1 51872U 22022W   23163.05235458  .00000416  00000-0  45959-4 0  9995,2 51872  53.2166 185.4419 0000854  74.8704 285.2382 15.07202776 71901,6922.889,95.541,545.345,544.163,0.0
51872.0,STARLINK-3554,PAYLOAD,2023-06-12 07:37:20,15.07203208,8.61e-05,53.2166,184.2542,74.4866,285.6221,4.5603e-05,4.11e-06,0.0,0 STARLINK-3554,1 51872U 22022W   23163.31760215  .00000411  00000-0  45603-4 0  9999,2 51872  53.2166 184.2542 0000861  74.4866 285.6221 15.07203208 71949,6922.888,95.541,545.349,544.157,0.0
51872.0,STARLINK-3554,PAYLOAD,2023-06-12 09:12:50,15.07204292,8.83e-05,53.2166,183.9573,73.6695,286.4394,5.4871e-05,5.52e-06,0.0,0 STARLINK-3554,1 51872U 22022W   23163.38391329  .00000552  00000-0  54871-4 0  9995,2 51872  53.2166 183.9573 0000883  73.6695 286.4394 15.07204292 71959,6922.885,95.541,545.361,544.138,0.0
51872.0,STARLINK-3554,PAYLOAD,2023-06-13 01:07:43,15.07205072,9.08e-05,53.2166,180.9877,73.1719,286.9372,3.1416e-05,1.95e-06,0.0,0 STARLINK-3554,1 51872U 22022W   23164.04703230  .00000195  00000-0  31416-4 0  9990,2 51872  53.2166 180.9877 0000908  73.1719 286.9372 15.07205072 72053,6922.882,95.541,545.376,544.119,0.0
51872.0,STARLINK-3554,PAYLOAD,2023-06-13 18:38:06,15.07205819,9.4e-05,53.2167,177.7218,71.5614,288.5479,2.7941e-05,1.42e-06,0.0,0 STARLINK-3554,1 51872U 22022W   23164.77646208  .00000142  00000-0  27941-4 0  9991,2 51872  53.2167 177.7218 0000940  71.5614 288.5479 15.07205819 72166,6922.88,95.541,545.396,544.094,0.0
51872.0,STARLINK-3554,PAYLOAD,2023-06-14 01:00:03,15.07204053,9.4e-05,53.2166,176.5338,72.3958,287.7136,2.2727e-05,6.3e-07,0.0,0 STARLINK-3554,1 51872U 22022W   23165.04171079  .00000063  00000-0  22727-4 0  9990,2 51872  53.2166 176.5338 0000940  72.3958 287.7136 15.07204053 72200,6922.885,95.541,545.401,544.1,0.0
51872.0,STARLINK-3554,PAYLOAD,2023-06-15 00:52:24,15.07202645,9.47e-05,53.2167,172.08,72.9808,287.1287,2.7629e-06,-2.41e-06,0.0,0 STARLINK-3554,1 51872U 22022W   23166.03639091 -.00000241  00000-0  27629-5 0  9999,2 51872  53.2167 172.0800 0000947  72.9808 287.1287 15.07202645 72355,6922.89,95.541,545.41,544.099,0.0
51872.0,STARLINK-3554,PAYLOAD,2023-06-15 05:38:52,15.07202709,9.58e-05,53.2168,171.1892,72.3556,287.754,3.9367e-06,-2.23e-06,0.0,0 STARLINK-3554,1 51872U 22022W   23166.23532682 -.00000223  00000-0  39367-5 0  9991,2 51872  53.2168 171.1892 0000958  72.3556 287.7540 15.07202709 72385,6922.889,95.541,545.418,544.091,0.0
51872.0,STARLINK-3554,PAYLOAD,2023-06-15 16:47:17,15.07203192,9.66e-05,53.2169,169.1106,71.9179,288.1917,3.5843e-06,-2.29e-06,0.0,0 STARLINK-3554,1 51872U 22022W   23166.69951044 -.00000229  00000-0  35843-5 0  9999,2 51872  53.2169 169.1106 0000966  71.9179 288.1917 15.07203192 72454,6922.888,95.541,545.422,544.084,0.0
51872.0,STARLINK-3554,PAYLOAD,2023-06-16 07:06:41,15.07204397,9.85e-05,53.217,166.4387,69.9645,290.1453,2.6823e-05,1.25e-06,0.0,0 STARLINK-3554,1 51872U 22022W   23167.29631709  .00000125  00000-0  26823-4 0  9990,2 51872  53.2170 166.4387 0000985  69.9645 290.1453 15.07204397 72549,6922.884,95.541,545.431,544.067,0.0
51872.0,STARLINK-3554,PAYLOAD,2023-06-16 16:39:38,15.07200399,0.0001009,53.2169,164.6575,74.0442,286.0661,2.1376e-06,-2.51e-06,0.0,0 STARLINK-3554,1 51872U 22022W   23167.69419234 -.00000251  00000-0  21376-5 0  9991,2 51872  53.2169 164.6575 0001009  74.0442 286.0661 15.07200399 72606,6922.897,95.541,545.46,544.063,0.0
51872.0,STARLINK-3554,PAYLOAD,2023-06-17 00:37:05,15.07197335,0.0001006,53.2171,163.173,77.114,282.9964,6.0983e-07,-2.74e-06,0.0,0 STARLINK-3554,1 51872U 22022W   23168.02575479 -.00000274  00000-0  60983-6 0  9996,2 51872  53.2171 163.1730 0001006  77.1140 282.9964 15.07197335 72653,6922.906,95.542,545.467,544.074,0.0
51872.0,STARLINK-3554,PAYLOAD,2023-06-17 06:59:02,15.07198206,0.0001012,53.217,161.9853,76.8396,283.2709,6.5046e-06,-1.84e-06,0.0,0 STARLINK-3554,1 51872U 22022W   23168.29100275 -.00000184  00000-0  65046-5 0  9997,2 51872  53.2170 161.9853 0001012  76.8396 283.2709 15.07198206 72693,6922.903,95.542,545.469,544.068,0.0
51872.0,STARLINK-3554,PAYLOAD,2023-06-17 16:31:58,15.07200133,0.0001035,53.2171,160.204,78.6495,281.4612,3.1346e-05,1.94e-06,0.0,0 STARLINK-3554,1 51872U 22022W   23168.68887340  .00000194  00000-0  31346-4 0  9990,2 51872  53.2171 160.2040 0001035  78.6495 281.4612 15.07200133 72752,6922.897,95.541,545.479,544.046,0.0
51872.0,STARLINK-3554,PAYLOAD,2023-06-18 03:40:23,15.07203782,0.0001045,53.2171,158.1256,79.1657,280.9452,3.5836e-05,2.62e-06,0.0,0 STARLINK-3554,1 51872U 22022W   23169.15305519  .00000262  00000-0  35836-4 0  9990,2 51872  53.2171 158.1256 0001045  79.1657 280.9452 15.07203782 72821,6922.886,95.541,545.475,544.028,0.0
51872.0,STARLINK-3554,PAYLOAD,2023-06-18 16:24:18,15.07204586,0.0001045,53.2172,155.7499,76.8238,283.287,5.6093e-05,5.71e-06,0.0,0 STARLINK-3554,1 51872U 22022W   23169.68354927  .00000571  00000-0  56093-4 0  9996,2 51872  53.2172 155.7499 0001045  76.8238 283.2870 15.07204586 72905,6922.884,95.541,545.472,544.025,0.0
51872.0,STARLINK-3554,PAYLOAD,2023-06-19 08:19:11,15.07207428,0.0001032,53.2168,152.7799,76.6884,283.4222,8.9627e-05,1.081e-05,0.0,0 STARLINK-3554,1 51872U 22022W   23170.34666492  .00001081  00000-0  89627-4 0  9990,2 51872  53.2168 152.7799 0001032  76.6884 283.4222 15.07207428 73004,6922.875,95.541,545.454,544.026,0.0
51872.0,STARLINK-3554,PAYLOAD,2023-06-19 16:16:38,15.072067,9.93e-05,53.2165,151.2953,76.394,283.7162,5.8542e-05,6.08e-06,0.0,0 STARLINK-3554,1 51872U 22022W   23170.67822531  .00000608  00000-0  58542-4 0  9990,2 51872  53.2165 151.2953 0000993  76.3940 283.7162 15.07206700 73055,6922.877,95.541,545.43,544.055,0.0
51872.0,STARLINK-3554,PAYLOAD,2023-06-20 05:00:33,15.07204793,0.0001074,53.2168,148.92,76.4534,283.6577,1.6476e-05,-3.2e-07,0.0,0 STARLINK-3554,1 51872U 22022W   23171.20872276 -.00000032  00000-0  16476-4 0  9993,2 51872  53.2168 148.9200 0001074  76.4534 283.6577 15.07204793 73135,6922.883,95.541,545.492,544.005,0.0
51872.0,STARLINK-3554,PAYLOAD,2023-06-20 08:11:32,15.07205387,0.0001075,53.2169,148.3261,76.5081,283.603,7.4248e-06,-1.7e-06,0.0,0 STARLINK-3554,1 51872U 22022W   23171.34134634 -.00000170  00000-0  74248-5 0  9992,2 51872  53.2169 148.3261 0001075  76.5081 283.6030 15.07205387 73152,6922.881,95.541,545.49,544.002,0.0
51872.0,STARLINK-3554,PAYLOAD,2023-06-21 08:03:52,15.0721043,0.0001104,53.2171,143.8714,81.2711,278.8405,1.7824e-05,-1.2e-07,0.0,0 STARLINK-3554,1 51872U 22022W   23172.33601967 -.00000012  00000-0  17824-4 0  9991,2 51872  53.2171 143.8714 0001104  81.2711 278.8405 15.07210430 73308,6922.866,95.541,545.495,543.967,0.0
51872.0,STARLINK-3554,PAYLOAD,2023-06-22 03:09:45,15.07199686,0.0001216,53.2177,140.3062,99.2738,260.8391,-3.1146e-05,-7.57e-06,0.0,0 STARLINK-3554,1 51872U 22022W   23173.13177144 -.00000757  00000-0 -31146-4 0  9995,2 51872  53.2177 140.3062 0001216  99.2738 260.8391 15.07199686 73421,6922.899,95.541,545.606,543.922,0.0
51872.0,STARLINK-3554,PAYLOAD,2023-06-23 07:48:32,15.07211336,0.0001045,53.2172,134.9646,95.8319,264.2792,1.2772e-05,-8.9e-07,0.0,0 STARLINK-3554,1 51872U 22022W   23174.32537948 -.00000089  00000-0  12772-4 0  9990,2 51872  53.2172 134.9646 0001045  95.8319 264.2792 15.07211336 73600,6922.863,95.541,545.451,544.005,0.0
51872.0,STARLINK-3554,PAYLOAD,2023-06-23 14:10:30,15.07203969,0.000101,53.2169,133.7768,98.2648,261.8458,2.7998e-05,1.43e-06,0.0,0 STARLINK-3554,1 51872U 22022W   23174.59063128  .00000143  00000-0  27998-4 0  9999,2 51872  53.2169 133.7768 0001010  98.2648 261.8458 15.07203969 73641,6922.886,95.541,545.45,544.051,0.0
51872.0,STARLINK-3554,PAYLOAD,2023-06-24 01:18:56,15.0719407,0.000114,53.2177,131.6986,101.0114,259.1006,-2.433e-05,-6.53e-06,0.0,0 STARLINK-3554,1 51872U 22022W   23175.05482569 -.00000653  00000-0 -24330-4 0  9990,2 51872  53.2177 131.6986 0001140 101.0114 259.1006 15.07194070 73713,6922.916,95.542,545.57,543.992,0.0
51872.0,STARLINK-3554,PAYLOAD,2023-06-24 06:05:24,15.07199488,0.0001074,53.2171,130.8075,99.6155,260.4958,1.4748e-05,-5.9e-07,0.0,0 STARLINK-3554,1 51872U 22022W   23175.25375779 -.00000059  00000-0  14748-4 0  9997,2 51872  53.2171 130.8075 0001074  99.6155 260.4958 15.07199488 73742,6922.899,95.541,545.508,544.021,0.0
51872.0,STARLINK-3554,PAYLOAD,2023-06-25 02:46:45,15.0721077,0.0001165,53.2175,126.9478,92.95,267.1625,3.9864e-05,3.24e-06,0.0,0 STARLINK-3554,1 51872U 22022W   23176.11580689  .00000324  00000-0  39864-4 0  9991,2 51872  53.2175 126.9478 0001165  92.9500 267.1625 15.07210770 73877,6922.865,95.541,545.536,543.923,0.0
